{
  "type": "FeatureCollection",
  "features": [
    {
      "type": "Feature",
      "properties": {
        "norad_id": 43706,
        "name": "BEIDOU-3 M17 (C36)",
        "group": "beidou",
        "lat": 34.390876448932985,
        "lon": -142.19592854996492,
        "alt_km": 21526.20884737716,
        "timestamp": "2025-12-26T11:25:45.460982+00:00",
        "meta_object_name": "BEIDOU-3 M17 (C36)",
        "meta_object_id": "2018-093A",
        "meta_epoch": "2025-12-26T03:36:39.806208",
        "meta_mean_motion": 1.86228273,
        "meta_eccentricity": 0.0005994,
        "meta_inclination": 54.1735,
        "meta_ra_of_asc_node": 188.1665,
        "meta_arg_of_pericenter": 306.9478,
        "meta_mean_anomaly": 238.7851,
        "meta_ephemeris_type": 0,
        "meta_classification_type": "U",
        "meta_norad_cat_id": 43706,
        "meta_element_set_no": 999,
        "meta_rev_at_epoch": 4831,
        "meta_bstar": 0,
        "meta_mean_motion_dot": 1.19e-06,
        "meta_mean_motion_ddot": 0,
        "tle_line1": "1 43706U 18093A   25360.15046072  .00000119  00000+0  00000+0 0  9991",
        "tle_line2": "2 43706  54.1735 188.1665 0005994 306.9478 238.7851  1.86228273 48315"
      },
      "geometry": {
        "type": "Point",
        "coordinates": [
          -142.19592854996492,
          34.390876448932985
        ]
      }
    },
    {
      "type": "Feature",
      "properties": {
        "norad_id": 43707,
        "name": "BEIDOU-3 M18 (C37)",
        "group": "beidou",
        "lat": 33.56466406539813,
        "lon": -20.50188771317852,
        "alt_km": 21538.010280088503,
        "timestamp": "2025-12-26T11:25:45.460992+00:00",
        "meta_object_name": "BEIDOU-3 M18 (C37)",
        "meta_object_id": "2018-093B",
        "meta_epoch": "2025-12-23T01:12:21.238848",
        "meta_mean_motion": 1.86226616,
        "meta_eccentricity": 0.0006147,
        "meta_inclination": 54.1741,
        "meta_ra_of_asc_node": 188.2636,
        "meta_arg_of_pericenter": 354.1254,
        "meta_mean_anomaly": 5.9078,
        "meta_ephemeris_type": 0,
        "meta_classification_type": "U",
        "meta_norad_cat_id": 43707,
        "meta_element_set_no": 999,
        "meta_rev_at_epoch": 4825,
        "meta_bstar": 0,
        "meta_mean_motion_dot": 9.6e-07,
        "meta_mean_motion_ddot": 0,
        "tle_line1": "1 43707U 18093B   25357.05024582  .00000096  00000+0  00000+0 0  9993",
        "tle_line2": "2 43707  54.1741 188.2636 0006147 354.1254   5.9078  1.86226616 48257"
      },
      "geometry": {
        "type": "Point",
        "coordinates": [
          -20.50188771317852,
          33.56466406539813
        ]
      }
    },
    {
      "type": "Feature",
      "properties": {
        "norad_id": 44231,
        "name": "BEIDOU-2 G8 (C01)",
        "group": "beidou",
        "lat": -0.6633895220590881,
        "lon": 51.278986902462805,
        "alt_km": 35778.09971471528,
        "timestamp": "2025-12-26T11:25:45.461002+00:00",
        "meta_object_name": "BEIDOU-2 G8 (C01)",
        "meta_object_id": "2019-027A",
        "meta_epoch": "2025-12-26T04:27:38.587392",
        "meta_mean_motion": 1.00274017,
        "meta_eccentricity": 0.0008319,
        "meta_inclination": 1.6938,
        "meta_ra_of_asc_node": 74.741,
        "meta_arg_of_pericenter": 259.007,
        "meta_mean_anomaly": 332.6181,
        "meta_ephemeris_type": 0,
        "meta_classification_type": "U",
        "meta_norad_cat_id": 44231,
        "meta_element_set_no": 999,
        "meta_rev_at_epoch": 2434,
        "meta_bstar": 0,
        "meta_mean_motion_dot": -2.25e-06,
        "meta_mean_motion_ddot": 0,
        "tle_line1": "1 44231U 19027A   25360.18586328 -.00000225  00000+0  00000+0 0  9998",
        "tle_line2": "2 44231   1.6938  74.7410 0008319 259.0070 332.6181  1.00274017 24349"
      },
      "geometry": {
        "type": "Point",
        "coordinates": [
          51.278986902462805,
          -0.6633895220590881
        ]
      }
    },
    {
      "type": "Feature",
      "properties": {
        "norad_id": 44337,
        "name": "BEIDOU-3 IGSO-2 (C39)",
        "group": "beidou",
        "lat": -36.06666841428769,
        "lon": 10.783589914104091,
        "alt_km": 35645.691416349684,
        "timestamp": "2025-12-26T11:25:45.461012+00:00",
        "meta_object_name": "BEIDOU-3 IGSO-2 (C39)",
        "meta_object_id": "2019-035A",
        "meta_epoch": "2025-12-25T18:13:52.363776",
        "meta_mean_motion": 1.00267205,
        "meta_eccentricity": 0.00378775,
        "meta_inclination": 55.2292,
        "meta_ra_of_asc_node": 160.387,
        "meta_arg_of_pericenter": 202.6493,
        "meta_mean_anomaly": 124.2453,
        "meta_ephemeris_type": 0,
        "meta_classification_type": "U",
        "meta_norad_cat_id": 44337,
        "meta_element_set_no": 999,
        "meta_rev_at_epoch": 2392,
        "meta_bstar": 0,
        "meta_mean_motion_dot": -6.4e-07,
        "meta_mean_motion_ddot": 0,
        "tle_line1": "1 44337U 19035A   25359.75963384 -.00000064  00000+0  00000+0 0  9997",
        "tle_line2": "2 44337  55.2292 160.3870 0037877 202.6493 124.2453  1.00267205 23921"
      },
      "geometry": {
        "type": "Point",
        "coordinates": [
          10.783589914104091,
          -36.06666841428769
        ]
      }
    },
    {
      "type": "Feature",
      "properties": {
        "norad_id": 44542,
        "name": "BEIDOU-3 M24 (C46)",
        "group": "beidou",
        "lat": 54.37095843022214,
        "lon": -82.18269645480882,
        "alt_km": 21509.869294433953,
        "timestamp": "2025-12-26T11:25:45.461022+00:00",
        "meta_object_name": "BEIDOU-3 M24 (C46)",
        "meta_object_id": "2019-061A",
        "meta_epoch": "2025-12-25T19:20:31.718688",
        "meta_mean_motion": 1.86229328,
        "meta_eccentricity": 0.0009559,
        "meta_inclination": 54.4007,
        "meta_ra_of_asc_node": 188.5751,
        "meta_arg_of_pericenter": 26.2339,
        "meta_mean_anomaly": 333.8493,
        "meta_ephemeris_type": 0,
        "meta_classification_type": "U",
        "meta_norad_cat_id": 44542,
        "meta_element_set_no": 999,
        "meta_rev_at_epoch": 4256,
        "meta_bstar": 0,
        "meta_mean_motion_dot": 1.16e-06,
        "meta_mean_motion_ddot": 0,
        "tle_line1": "1 44542U 19061A   25359.80592267  .00000116  00000+0  00000+0 0  9995",
        "tle_line2": "2 44542  54.4007 188.5751 0009559  26.2339 333.8493  1.86229328 42560"
      },
      "geometry": {
        "type": "Point",
        "coordinates": [
          -82.18269645480882,
          54.37095843022214
        ]
      }
    },
    {
      "type": "Feature",
      "properties": {
        "norad_id": 44543,
        "name": "BEIDOU-3 M23 (C45)",
        "group": "beidou",
        "lat": 1.7032855334011463,
        "lon": -170.2555721548939,
        "alt_km": 21513.131113977135,
        "timestamp": "2025-12-26T11:25:45.461032+00:00",
        "meta_object_name": "BEIDOU-3 M23 (C45)",
        "meta_object_id": "2019-061B",
        "meta_epoch": "2025-12-26T04:09:30.101184",
        "meta_mean_motion": 1.86227478,
        "meta_eccentricity": 0.0005995,
        "meta_inclination": 54.3995,
        "meta_ra_of_asc_node": 188.531,
        "meta_arg_of_pericenter": 25.8567,
        "meta_mean_anomaly": 133.188,
        "meta_ephemeris_type": 0,
        "meta_classification_type": "U",
        "meta_norad_cat_id": 44543,
        "meta_element_set_no": 999,
        "meta_rev_at_epoch": 4257,
        "meta_bstar": 0,
        "meta_mean_motion_dot": 1.19e-06,
        "meta_mean_motion_ddot": 0,
        "tle_line1": "1 44543U 19061B   25360.17326506  .00000119  00000+0  00000+0 0  9992",
        "tle_line2": "2 44543  54.3995 188.5310 0005995  25.8567 133.1880  1.86227478 42571"
      },
      "geometry": {
        "type": "Point",
        "coordinates": [
          -170.2555721548939,
          1.7032855334011463
        ]
      }
    },
    {
      "type": "Feature",
      "properties": {
        "norad_id": 44793,
        "name": "BEIDOU-3 M22 (C44)",
        "group": "beidou",
        "lat": -13.525565780965596,
        "lon": 135.91408451282052,
        "alt_km": 21546.745720587278,
        "timestamp": "2025-12-26T11:25:45.461042+00:00",
        "meta_object_name": "BEIDOU-3 M22 (C44)",
        "meta_object_id": "2019-078A",
        "meta_epoch": "2025-12-22T23:04:03.320256",
        "meta_mean_motion": 1.86232206,
        "meta_eccentricity": 0.00060944,
        "meta_inclination": 54.0989,
        "meta_ra_of_asc_node": 306.0279,
        "meta_arg_of_pericenter": 24.0205,
        "meta_mean_anomaly": 336.0117,
        "meta_ephemeris_type": 0,
        "meta_classification_type": "U",
        "meta_norad_cat_id": 44793,
        "meta_element_set_no": 999,
        "meta_rev_at_epoch": 4136,
        "meta_bstar": 0,
        "meta_mean_motion_dot": -5.4e-07,
        "meta_mean_motion_ddot": 0,
        "tle_line1": "1 44793U 19078A   25356.96114954 -.00000054  00000+0  00000+0 0  9990",
        "tle_line2": "2 44793  54.0989 306.0279 0006094  24.0205 336.0117  1.86232206 41368"
      },
      "geometry": {
        "type": "Point",
        "coordinates": [
          135.91408451282052,
          -13.525565780965596
        ]
      }
    }
  ]
}